{
  "norad_id": 61697,
  "name": "STARLINK-11346 [DTC]",
  "history": [
    {
      "epoch": "2026-03-28T20:03:24.960384",
      "apogee_km": 360.3735197538699,
      "perigee_km": 359.1495131093743,
      "latitude_deg": 51.4186118745654,
      "longitude_deg": 69.92773375986144,
      "semi_major_axis_km": 6737.898516431622,
      "eccentricity": 9.083e-05,
      "inclination_deg": 53.1585,
      "raan_deg": 291.6577,
      "arg_perigee_deg": 115.9661,
      "mean_anomaly_deg": 244.1451,
      "mean_motion_rev_day": 15.69697851
    }
  ]
}